QIANFAN-177             
1 69394U 26124N   26196.13175218  .00000000  00000+0 -94291-5 0  9998
2 69394  88.9996 358.8724 0007811  63.3410 296.8567 13.97662649  5778
QIANFAN-178             
1 69395U 26124P   26195.91317235 -.00000033  00000+0 -30689-4 0  9998
2 69395  89.0015 358.8896 0007507  73.8989 286.3017 14.01605330  5743
QIANFAN-179             
1 69396U 26124Q   26195.89726156  .00000046  00000+0  21934-4 0  9997
2 69396  89.0037 358.8778 0006261  67.2902 292.8938 14.00191823  5745
QIANFAN-180             
1 69397U 26124R   26195.89952160  .00000033  00000+0  13635-4 0  9999
2 69397  89.0016 358.8827 0006696  65.2185 294.9689 13.98577384  5743
QIANFAN-181             
1 69398U 26124S   26195.92764512  .00000028  00000+0  12105-4 0  9991
2 69398  88.9948 358.9398 0004709  68.8250 291.3426 13.89218541  5720
QIANFAN-182             
1 69399U 26124T   26196.16216205  .00000028  00000+0  11275-4 0  9997
2 69399  88.9995 358.8954 0006871  70.9505 289.2414 13.92367273  5756
QIANFAN-183             
1 69401U 26125A   26196.11604255 -.01919345  00000+0 -15590+1 0  9997
2 69401  88.9940 277.3088 0017265  81.5540 278.7591 13.93792679  5649
QIANFAN-184             
1 69402U 26125B   26196.10662169 -.02078859  00000+0 -17019+1 0  9990
2 69402  88.9941 277.3094 0021394  74.0253 286.3277 13.93627894  5646
QIANFAN-185             
1 69403U 26125C   26196.17497692  .00000029  00000+0  96214-5 0  9994
2 69403  88.9948 277.2996 0018286  82.2557 278.0700 14.04121277  5655
QIANFAN-186             
1 69404U 26125D   26196.16432477 -.01965940  00000+0 -16331+1 0  9996
2 69404  88.9947 277.2987 0018009  79.8615 280.4590 13.92589477  5655
QIANFAN-187             
1 69405U 26125E   26196.14176823 -.02045896  00000+0 -16338+1 0  9992
2 69405  88.9940 277.2948 0023544  69.4053 290.9645 13.94963372  5656
QIANFAN-188             
1 69406U 26125F   26196.11289471 -.02015983  00000+0 -15585+1 0  9991
2 69406  88.9938 277.2904 0022143  73.7910 286.5701 13.96773241  5650
QIANFAN-189             
1 69407U 26125G   26196.12915919 -.02148475  00000+0 -16784+1 0  9991
2 69407  88.9944 277.2937 0019053  63.5556 296.7573 13.96476482  5649
QIANFAN-190             
1 69408U 26125H   26196.19610389  .00000007  00000+0 -50545-5 0  9995
2 69408  88.9949 277.2849 0019297  81.7964 278.5402 13.98344058  5668
QIANFAN-191             
1 69409U 26125J   26195.96101205 -.02018407  00000+0 -15657+1 0  9998
2 69409  88.9944 277.3051 0022731  74.3561 286.0122 13.96579390  5635
QIANFAN-192             
1 69410U 26125K   26196.01948271 -.01979330  00000+0 -15495+1 0  9999
2 69410  88.9946 277.2958 0024640  82.2239 278.1734 13.95953316  5640
