{"fetched_at":"2026-07-15T17:46:49.740Z","source":"https://celestrak.org/NORAD/elements/gp.php?GROUP=qianfan&FORMAT=JSON","constellation":"qianfan","records":[{"OBJECT_NAME":"QIANFAN-177","OBJECT_ID":"2026-124N","EPOCH":"2026-07-15T03:09:43.388352","CLASSIFICATION_TYPE":"U","MEAN_MOTION":13.97662649,"ECCENTRICITY":0.0007811,"INCLINATION":88.9996,"RA_OF_ASC_NODE":358.8724,"ARG_OF_PERICENTER":63.341,"MEAN_ANOMALY":296.8567,"EPHEMERIS_TYPE":0,"NORAD_CAT_ID":69394,"ELEMENT_SET_NO":999,"REV_AT_EPOCH":577,"BSTAR":-0.0000094291,"MEAN_MOTION_DOT":0,"MEAN_MOTION_DDOT":0},{"OBJECT_NAME":"QIANFAN-178","OBJECT_ID":"2026-124P","EPOCH":"2026-07-14T21:54:58.091040","CLASSIFICATION_TYPE":"U","MEAN_MOTION":14.0160533,"ECCENTRICITY":0.0007507,"INCLINATION":89.0015,"RA_OF_ASC_NODE":358.8896,"ARG_OF_PERICENTER":73.8989,"MEAN_ANOMALY":286.3017,"EPHEMERIS_TYPE":0,"NORAD_CAT_ID":69395,"ELEMENT_SET_NO":999,"REV_AT_EPOCH":574,"BSTAR":-0.000030689,"MEAN_MOTION_DOT":-3.3e-7,"MEAN_MOTION_DDOT":0},{"OBJECT_NAME":"QIANFAN-179","OBJECT_ID":"2026-124Q","EPOCH":"2026-07-14T21:32:03.398784","CLASSIFICATION_TYPE":"U","MEAN_MOTION":14.00191823,"ECCENTRICITY":0.0006261,"INCLINATION":89.0037,"RA_OF_ASC_NODE":358.8778,"ARG_OF_PERICENTER":67.2902,"MEAN_ANOMALY":292.8938,"EPHEMERIS_TYPE":0,"NORAD_CAT_ID":69396,"ELEMENT_SET_NO":999,"REV_AT_EPOCH":574,"BSTAR":0.000021934,"MEAN_MOTION_DOT":4.6e-7,"MEAN_MOTION_DDOT":0},{"OBJECT_NAME":"QIANFAN-180","OBJECT_ID":"2026-124R","EPOCH":"2026-07-14T21:35:18.666240","CLASSIFICATION_TYPE":"U","MEAN_MOTION":13.98577384,"ECCENTRICITY":0.0006696,"INCLINATION":89.0016,"RA_OF_ASC_NODE":358.8827,"ARG_OF_PERICENTER":65.2185,"MEAN_ANOMALY":294.9689,"EPHEMERIS_TYPE":0,"NORAD_CAT_ID":69397,"ELEMENT_SET_NO":999,"REV_AT_EPOCH":574,"BSTAR":0.000013635,"MEAN_MOTION_DOT":3.3e-7,"MEAN_MOTION_DDOT":0},{"OBJECT_NAME":"QIANFAN-181","OBJECT_ID":"2026-124S","EPOCH":"2026-07-14T22:15:48.538368","CLASSIFICATION_TYPE":"U","MEAN_MOTION":13.89218541,"ECCENTRICITY":0.0004709,"INCLINATION":88.9948,"RA_OF_ASC_NODE":358.9398,"ARG_OF_PERICENTER":68.825,"MEAN_ANOMALY":291.3426,"EPHEMERIS_TYPE":0,"NORAD_CAT_ID":69398,"ELEMENT_SET_NO":999,"REV_AT_EPOCH":572,"BSTAR":0.000012105,"MEAN_MOTION_DOT":2.8e-7,"MEAN_MOTION_DDOT":0},{"OBJECT_NAME":"QIANFAN-182","OBJECT_ID":"2026-124T","EPOCH":"2026-07-15T03:53:30.801120","CLASSIFICATION_TYPE":"U","MEAN_MOTION":13.92367273,"ECCENTRICITY":0.0006871,"INCLINATION":88.9995,"RA_OF_ASC_NODE":358.8954,"ARG_OF_PERICENTER":70.9505,"MEAN_ANOMALY":289.2414,"EPHEMERIS_TYPE":0,"NORAD_CAT_ID":69399,"ELEMENT_SET_NO":999,"REV_AT_EPOCH":575,"BSTAR":0.000011275,"MEAN_MOTION_DOT":2.8e-7,"MEAN_MOTION_DDOT":0},{"OBJECT_NAME":"QIANFAN-183","OBJECT_ID":"2026-125A","EPOCH":"2026-07-15T02:47:06.076320","CLASSIFICATION_TYPE":"U","MEAN_MOTION":13.93792679,"ECCENTRICITY":0.0017265,"INCLINATION":88.994,"RA_OF_ASC_NODE":277.3088,"ARG_OF_PERICENTER":81.554,"MEAN_ANOMALY":278.7591,"EPHEMERIS_TYPE":0,"NORAD_CAT_ID":69401,"ELEMENT_SET_NO":999,"REV_AT_EPOCH":564,"BSTAR":-1.559,"MEAN_MOTION_DOT":-0.01919345,"MEAN_MOTION_DDOT":0},{"OBJECT_NAME":"QIANFAN-184","OBJECT_ID":"2026-125B","EPOCH":"2026-07-15T02:33:32.114016","CLASSIFICATION_TYPE":"U","MEAN_MOTION":13.93627894,"ECCENTRICITY":0.0021394,"INCLINATION":88.9941,"RA_OF_ASC_NODE":277.3094,"ARG_OF_PERICENTER":74.0253,"MEAN_ANOMALY":286.3277,"EPHEMERIS_TYPE":0,"NORAD_CAT_ID":69402,"ELEMENT_SET_NO":999,"REV_AT_EPOCH":564,"BSTAR":-1.7019,"MEAN_MOTION_DOT":-0.02078859,"MEAN_MOTION_DDOT":0},{"OBJECT_NAME":"QIANFAN-185","OBJECT_ID":"2026-125C","EPOCH":"2026-07-15T04:11:58.005888","CLASSIFICATION_TYPE":"U","MEAN_MOTION":14.04121277,"ECCENTRICITY":0.0018286,"INCLINATION":88.9948,"RA_OF_ASC_NODE":277.2996,"ARG_OF_PERICENTER":82.2557,"MEAN_ANOMALY":278.07,"EPHEMERIS_TYPE":0,"NORAD_CAT_ID":69403,"ELEMENT_SET_NO":999,"REV_AT_EPOCH":565,"BSTAR":0.0000096214,"MEAN_MOTION_DOT":2.9e-7,"MEAN_MOTION_DDOT":0},{"OBJECT_NAME":"QIANFAN-186","OBJECT_ID":"2026-125D","EPOCH":"2026-07-15T03:56:37.660128","CLASSIFICATION_TYPE":"U","MEAN_MOTION":13.92589477,"ECCENTRICITY":0.0018009,"INCLINATION":88.9947,"RA_OF_ASC_NODE":277.2987,"ARG_OF_PERICENTER":79.8615,"MEAN_ANOMALY":280.459,"EPHEMERIS_TYPE":0,"NORAD_CAT_ID":69404,"ELEMENT_SET_NO":999,"REV_AT_EPOCH":565,"BSTAR":-1.6331,"MEAN_MOTION_DOT":-0.0196594,"MEAN_MOTION_DDOT":0},{"OBJECT_NAME":"QIANFAN-187","OBJECT_ID":"2026-125E","EPOCH":"2026-07-15T03:24:08.775072","CLASSIFICATION_TYPE":"U","MEAN_MOTION":13.94963372,"ECCENTRICITY":0.0023544,"INCLINATION":88.994,"RA_OF_ASC_NODE":277.2948,"ARG_OF_PERICENTER":69.4053,"MEAN_ANOMALY":290.9645,"EPHEMERIS_TYPE":0,"NORAD_CAT_ID":69405,"ELEMENT_SET_NO":999,"REV_AT_EPOCH":565,"BSTAR":-1.6338,"MEAN_MOTION_DOT":-0.02045896,"MEAN_MOTION_DDOT":0},{"OBJECT_NAME":"QIANFAN-188","OBJECT_ID":"2026-125F","EPOCH":"2026-07-15T02:42:34.102944","CLASSIFICATION_TYPE":"U","MEAN_MOTION":13.96773241,"ECCENTRICITY":0.0022143,"INCLINATION":88.9938,"RA_OF_ASC_NODE":277.2904,"ARG_OF_PERICENTER":73.791,"MEAN_ANOMALY":286.5701,"EPHEMERIS_TYPE":0,"NORAD_CAT_ID":69406,"ELEMENT_SET_NO":999,"REV_AT_EPOCH":565,"BSTAR":-1.5585,"MEAN_MOTION_DOT":-0.02015983,"MEAN_MOTION_DDOT":0},{"OBJECT_NAME":"QIANFAN-189","OBJECT_ID":"2026-125G","EPOCH":"2026-07-15T03:05:59.354016","CLASSIFICATION_TYPE":"U","MEAN_MOTION":13.96476482,"ECCENTRICITY":0.0019053,"INCLINATION":88.9944,"RA_OF_ASC_NODE":277.2937,"ARG_OF_PERICENTER":63.5556,"MEAN_ANOMALY":296.7573,"EPHEMERIS_TYPE":0,"NORAD_CAT_ID":69407,"ELEMENT_SET_NO":999,"REV_AT_EPOCH":564,"BSTAR":-1.6784,"MEAN_MOTION_DOT":-0.02148475,"MEAN_MOTION_DDOT":0},{"OBJECT_NAME":"QIANFAN-190","OBJECT_ID":"2026-125H","EPOCH":"2026-07-15T04:42:23.376096","CLASSIFICATION_TYPE":"U","MEAN_MOTION":13.98344058,"ECCENTRICITY":0.0019297,"INCLINATION":88.9949,"RA_OF_ASC_NODE":277.2849,"ARG_OF_PERICENTER":81.7964,"MEAN_ANOMALY":278.5402,"EPHEMERIS_TYPE":0,"NORAD_CAT_ID":69408,"ELEMENT_SET_NO":999,"REV_AT_EPOCH":566,"BSTAR":-0.0000050545,"MEAN_MOTION_DOT":7e-8,"MEAN_MOTION_DDOT":0},{"OBJECT_NAME":"QIANFAN-191","OBJECT_ID":"2026-125J","EPOCH":"2026-07-14T23:03:51.441120","CLASSIFICATION_TYPE":"U","MEAN_MOTION":13.9657939,"ECCENTRICITY":0.0022731,"INCLINATION":88.9944,"RA_OF_ASC_NODE":277.3051,"ARG_OF_PERICENTER":74.3561,"MEAN_ANOMALY":286.0122,"EPHEMERIS_TYPE":0,"NORAD_CAT_ID":69409,"ELEMENT_SET_NO":999,"REV_AT_EPOCH":563,"BSTAR":-1.5657,"MEAN_MOTION_DOT":-0.02018407,"MEAN_MOTION_DDOT":0},{"OBJECT_NAME":"QIANFAN-192","OBJECT_ID":"2026-125K","EPOCH":"2026-07-15T00:28:03.306144","CLASSIFICATION_TYPE":"U","MEAN_MOTION":13.95953316,"ECCENTRICITY":0.002464,"INCLINATION":88.9946,"RA_OF_ASC_NODE":277.2958,"ARG_OF_PERICENTER":82.2239,"MEAN_ANOMALY":278.1734,"EPHEMERIS_TYPE":0,"NORAD_CAT_ID":69410,"ELEMENT_SET_NO":999,"REV_AT_EPOCH":564,"BSTAR":-1.5495,"MEAN_MOTION_DOT":-0.0197933,"MEAN_MOTION_DDOT":0}]}
